[Satellite]
VERSION=1.1
NAME=COSMOS 1408
NICKNAME=COSMOS 1408
TLE1=1 13552U 82092A   19317.08137736  .00001061  00000-0  37948-4 0  9996
TLE2=2 13552  82.5652 134.9189 0018103 177.8798 182.2521 15.27470175 31195
STATUS=0
